IRIDIUM 159             
1 43578U 18061K   24103.28697326 -.00000012  00000+0 -11286-4 0  9992
2 43578  86.4015  29.3120 0002154  88.5482 271.5961 14.34217621299302
IRIDIUM 180             
1 43922U 19002A   24103.56554245  .00000208  00000+0  67049-4 0  9997
2 43922  86.3967 326.1166 0002093  86.4222 273.7213 14.34219952274956
IRIDIUM 176             
1 43923U 19002B   24103.59700686  .00001147  00000+0  17793-3 0  9996
2 43923  86.6093 326.1299 0002460  89.7523 270.3976 14.72255380282196
IRIDIUM 168             
1 43924U 19002C   24103.55919313  .00000322  00000+0  10779-3 0  9993
2 43924  86.3974 326.1733 0002004  91.0272 269.1153 14.34217007274934
IRIDIUM 173             
1 43925U 19002D   24103.61628571  .00000314  00000+0  10495-3 0  9990
2 43925  86.3963 326.0716 0002096  88.4136 271.7300 14.34220623274923
IRIDIUM 169             
1 43926U 19002E   24103.18644702  .00000426  00000+0  13267-3 0  9991
2 43926  86.4276 357.8514 0004407  85.6529 274.5173 14.38601271275783
IRIDIUM 172             
1 43927U 19002F   24103.60994872  .00000335  00000+0  11240-3 0  9993
2 43927  86.3963 326.0798 0002028  88.4677 271.6751 14.34220819274937
IRIDIUM 175             
1 43928U 19002G   24103.59116794  .00000431  00000+0  64427-4 0  9994
2 43928  86.1467 302.9754 0002260  88.6345 271.5130 14.72238633282183
